id,latitude,longitude,location,pincode
1,-7.1396,114.3272,Guder Lao,100001
2,16.1991156,103.2839975,Maha Sarakham,100002
3,25.797931,110.011238,Longsheng,100003
4,5.3191534,-4.2564094,Songon,100004
5,50.23154,24.377,Staryy Dobrotvir,100005
6,-7.7403739,110.0330554,Purorejo,100006
7,13.1641308,100.9216588,Si Racha,100007
8,23.236168,111.409653,Shuitai,100008
9,47.4325252,19.157136,Budapest,100009
10,40.2272711,43.8717749,Dalarik,100010
11,34.620202,112.453926,Luoyang,100011
12,48.6469926,25.7383108,Zalishchyky,100012
13,41.7509723,43.5291848,Bakuriani,100013
14,43.3531543,-1.6300821,Saint-Jean-de-Luz,100014
15,-9.591725,124.4530968,Kiuola,100015
16,-19.0152673,-57.6594997,Corumbá,100016
17,16.2093368,100.3722477,Taphan Hin,100017
18,14.5655554,121.0335158,Osias,100018
19,67.9547288,23.6829386,Muonio,100019
20,-8.6450837,116.8085683,Mantar,100020
21,-7.1665502,111.9969626,Sumuragung,100021
22,37.7404063,127.4241436,Cheongpyeong,100022
23,32.795859,35.530973,Tiberias,100023
24,56.2620262,15.6049677,Karlskrona,100024
25,50.1062428,22.7546149,Wiązownica,100025
26,23.12468,113.3612,Tianhe,100026
27,54.7894086,65.9674841,Polovinnoye,100027
28,-6.7612368,111.6273187,Nglojo,100028
29,32.1018288,72.7912031,Sargodha,100029
30,52.3770271,4.9192294,Amsterdam Binnenstad en Oostelijk Havengebied,100030
31,-6.995577,112.9862557,Batambak,100031
32,17.7524749,120.466907,Caronoan West,100032
33,14.609579,120.993122,Sison,100033
34,-6.9415153,-78.1350635,Sucre,100034
35,9.3607067,-83.7145811,San Isidro,100035
36,53.8399736,92.6676385,Belyy Yar,100036
37,10.8239425,122.505277,Cadagmayan Norte,100037
38,55.830186,37.4457899,Krasnyy Oktyabr’,100038
39,14.8454589,121.0912149,Minuyan,100039
40,60.7353362,77.6065163,Strezhevoy,100040
41,31.2000924,29.9187387,Alexandria,100041
42,4.5604389,-74.115187,Bogotá,100042
43,39.3577545,-9.3495726,Baleal,100043
44,39.9459413,116.3817634,Xiaochi,100044
45,43.2220146,76.8512485,Almaty,100045
46,51.0248584,22.8537385,Rybczewice,100046
47,46.9,113.41667,Haylaastay,100047
48,56.606956,26.7599531,Varakļāni,100048
49,23.321441,113.558655,Huang’ao,100049
50,40.370514,-8.7330787,Cochadas,100050
51,12.0675239,123.7223625,Cawayan,100051
52,38.3508588,141.4219969,Ishinomaki,100052
53,-26.4743278,-49.0023,Guaramirim,100053
54,34.341574,108.93977,Xue’an,100054
55,-7.5450262,111.6556388,Krajan,100055
56,45.3270631,14.442176,Rijeka,100056
57,9.5188754,-7.5572231,Odienné,100057
58,27.999411,115.932899,Xiushi,100058
59,44.6962724,39.8024873,Pshekhskaya,100059
60,39.9041999,116.4073963,Beijie,100060
61,59.9336282,30.6609232,Koltushi,100061
62,-12.6358928,-72.5558986,Quellouno,100062
63,-14.33056,-170.75278,Mapusagafou,100063
64,50.5856582,16.3318151,Broumov,100064
65,-8.4765241,115.5325797,Manggis,100065
66,-13.831435,-171.7985223,Vaiusu,100066
67,-6.9580488,107.5847246,Cirangrang,100067
68,41.302157,123.7403542,Dingtou,100068
69,-32.1748082,-64.1108167,Río Tercero,100069
70,38.6026034,-90.4365807,Wangfu,100070
71,12.573631,102.1041583,Chanthaburi,100071
72,-6.2746751,-79.6080967,Salas,100072
73,49.9521852,18.4800457,Skrzyszów,100073
74,49.4576263,35.1200067,Karlivka,100074
75,-4.3073908,104.7812654,Negararatu,100075
76,40.60624,-8.5926997,Oliveirinha,100076
77,59.8445787,13.2588145,Sunne,100077
78,14.5636491,121.029454,Abaca,100078
79,3.4851908,-76.5112471,Cali,100079
80,-23.5266796,-51.8311441,Marialva,100080
81,37.2746124,9.8627243,Bizerte,100081
82,37.6883607,22.7120308,Koutsopódi,100082
83,55.0764307,98.8426483,Uk,100083
84,8.417766,126.207415,Tagbina,100084
85,-24.3817381,-65.1218129,Maimará,100085
86,33.7654607,-84.38709,Atlanta,100086
87,13.0748879,120.7213113,Santa Cruz,100087
88,44.6488775,37.9401099,Kabardinka,100088
89,50.9060529,15.3368765,Świeradów-Zdrój,100089
90,-7.4207981,111.6243377,Sumberbening,100090
91,24.64995,116.156645,Changtan,100091
92,45.6232258,63.3139829,Baykonyr,100092
93,50.2837307,2.7425682,Arras,100093
94,61.0600425,24.2071941,Kalvola,100094
95,-8.2464,115.5631,Baturinggit Kaja,100095
96,56.0817902,43.472486,Bogorodsk,100096
97,12.610537,-70.0533844,Arasji,100097
98,-2.688962,111.622398,Pangkalanbuun,100098
99,1.0087005,100.2656209,Batas Barat,100099
100,12.225759,21.4126837,Goz Béïda,100100
101,44.4868448,43.9408057,Niny,100101
102,51.8948456,15.4110348,Świdnica,100102
103,-26.9265749,-48.9561869,Gaspar,100103
104,50.1380318,13.9911619,Tuchlovice,100104
105,34.0899029,131.3980655,Yamaguchi-shi,100105
106,48.7700185,2.3508225,Rungis,100106
107,9.6365101,123.8536209,Songculan,100107
108,26.647661,106.630153,Guyang,100108
109,42.5064293,20.3599254,Gllogjan,100109
110,49.465597,16.1555481,Mirošov,100110
111,40.6335427,47.467431,Ağdaş,100111
112,41.321246,19.470567,Kastrat,100112
113,18.6243144,98.8938543,San Pa Tong,100113
114,52.0404797,76.9262526,Aksu,100114
115,51.5258667,57.3241614,Kuvandyk,100115
116,49.3559892,2.7877074,Lacroix-Saint-Ouen,100116
117,25.045532,101.528068,Laxiong,100117
118,59.94043,30.2813321,Vasyl'evsky Ostrov,100118
119,33.027777,113.546942,Xiabeisi,100119
120,16.289185,119.90559,Carot,100120
121,14.7342524,121.0702642,Esperanza,100121
122,25.6697865,-80.4660256,Miami,100122
123,14.871038,-24.6949966,Vila Nova Sintra,100123
124,26.3237782,88.5167162,Panchagarh,100124
125,-20.0207751,57.6240731,Petit Raffray,100125
126,23.764143,115.969501,Baxiangshan,100126
127,39.0145274,-7.0611673,Campo Maior,100127
128,31.052914,110.332814,Guandukou,100128
129,52.2774362,85.4051549,Sovetskoye,100129
130,12.1564921,-86.3528838,Ciudad Sandino,100130
131,48.9126632,2.4201634,Bobigny,100131
132,49.16291,127.98658,Xin’e,100132
133,16.6482598,101.0118776,Khao Kho,100133
134,51.756353,14.7142269,Brody,100134
135,65.2674812,27.5126688,Puolanka,100135
136,38.7655253,-9.3448465,Albarraque,100136
137,-8.3207,123.4638,Waipukang,100137
138,-32.817807,-63.877963,General Cabrera,100138
139,-20.7784132,-41.6847632,Guaçuí,100139
140,59.4411274,30.1610699,Siverskiy,100140
141,38.8905198,-7.5457633,São Lourenço de Mamporcão,100141
142,36.5122781,36.8653891,‘Afrīn,100142
143,39.7472496,-75.5917092,Wilmington,100143
144,63.4400274,10.4024274,Trondheim,100144
145,35.4175712,10.997658,Ksour Essaf,100145
146,45.0827061,18.5064033,Kruševica,100146
147,26.938792,113.861611,Zhitang,100147
148,-23.5257248,-47.1322342,São Roque,100148
149,-8.0138,111.4166,Krajan Menggare,100149
150,-7.1591357,108.3474974,Babantar,100150
151,29.3830191,70.9139437,Alīpur,100151
152,64.9099021,25.5080144,Kurikka,100152
153,37.8806901,140.1356792,Misawa,100153
154,49.6579309,18.7059561,Třinec,100154
155,11.1305191,2.9325785,Kandi,100155
156,47.9318074,5.2893597,La Rochelle,100156
157,35.293048,112.390857,Honglu,100157
158,5.9840985,116.0761121,Kota Kinabalu,100158
159,19.5094038,-71.595154,Piedra Blanca,100159
160,32.647371,35.421551,Kafr Miṣr,100160
161,54.632212,23.9452683,Prienai,100161
162,41.7721061,-72.7038047,Hartford,100162
163,-18.0197815,31.067907,Chitungwiza,100163
164,14.9817467,-87.8893383,Santa Cruz,100164
165,22.581293,113.896129,Daohe,100165
166,-6.7751995,111.3515736,Bogorame,100166
167,30.378737,112.649998,Haokou,100167
168,9.88293,-85.529061,Sámara,100168
169,40.9370022,45.1804861,Khasht’arrak,100169
170,59.9028865,30.3175834,Admiralteisky,100170
171,13.9426434,45.6787098,Mukayrās,100171
172,35.356644,111.22472,Wenxi,100172
173,-7.2120117,111.692902,Tlatah,100173
174,-6.9535762,108.8521777,Pende,100174
175,56.029768,12.8179315,Helsingborg,100175
176,65.8261477,21.7037935,Boden,100176
177,15.596502,-87.9432837,Choloma,100177
178,22.803694,108.3323803,Lieyu,100178
179,49.336,4.0935629,Reims,100179
180,25.386379,114.922922,Xinfeng,100180
181,51.7419091,111.9603596,Mogzon,100181
182,50.7193517,15.1765093,Jablonec nad Nisou,100182
183,28.0547578,81.614468,Nepalgunj,100183
184,29.937716,110.047948,Shuishaping,100184
185,40.9089779,-8.421278,Moutas,100185
186,43.4717283,-3.7866915,Santander,100186
187,46.880102,127.507824,Qing’an,100187
188,29.844107,115.561217,Wuxue Shi,100188
189,3.856457,-68.2385339,Inírida,100189
190,-7.5613556,-40.1862129,Ipubi,100190
191,31.213534,121.445448,Muqi,100191
192,-8.6854551,115.2623991,Kentongan,100192
193,52.7038839,55.8511258,Yermolayevo,100193
194,14.9792432,104.2163411,Wang Hin,100194
195,31.074834,109.879153,Wushan,100195
196,14.8921247,-87.1711922,Marale,100196
197,48.2441219,28.2765218,Yampil’,100197
198,-9.0020538,125.6478189,Same,100198
199,41.2612832,22.9989148,Rodópoli,100199
200,62.7184038,32.7414584,Porosozero,100200
201,-4.3695455,15.3950939,Masina,100201
202,46.171607,-71.875654,Princeville,100202
203,3.0100681,101.5326734,Shah Alam,100203
204,53.2515219,19.6135793,Bartniczka,100204
205,26.647661,106.630153,Guyang,100205
206,-28.832995,-52.5745556,Soledade,100206
207,21.121444,106.1110501,Bắc Ninh,100207
208,27.754532,112.723615,Shitan,100208
209,19.379122,-99.1097687,La Purisima,100209
210,-22.570834,-47.4147321,Limeira,100210
211,47.620391,7.243036,Altkirch,100211
212,-43.2643313,-65.3506508,Telsen,100212
213,31.263629,121.58448,Liubo,100213
214,29.090585,21.3321974,Awjilah,100214
215,-39.3681199,-72.6315127,Loncoche,100215
216,-5.3810959,105.2955575,Sokarame,100216
217,42.14389,21.58778,Otlja,100217
218,27.395894,114.286422,Qingjiang,100218
219,6.7884819,-75.6816631,San José de La Montaña,100219
220,45.846967,-73.4924769,L'Épiphanie,100220
221,13.756986,121.058107,Haligue,100221
222,-20.2976178,-40.2957768,Vitória,100222
223,-7.3474138,112.7677319,Wadungasri,100223
224,45.7333281,20.6693099,Srpska Crnja,100224
225,29.5530941,118.9353968,Shicang,100225
226,50.2373675,15.6327653,Nechanice,100226
227,58.673928,17.105134,Oxelösund,100227
228,51.0144934,13.6972162,Dresden,100228
229,-7.0179497,-52.3613378,São Félix do Xingu,100229
230,45.0545731,21.3401422,Kuštilj,100230
231,42.4304196,19.2593642,Podgorica,100231
232,37.8269697,23.9667402,Kouvarás,100232
233,28.555787,121.244605,Henglin,100233
234,-37.7178812,-72.2374343,Mulchén,100234
235,35.7642515,10.8112885,Monastir,100235
236,29.8812968,111.4535119,Huolianpo,100236
237,15.5160946,120.7090355,Matayumtayum,100237
238,-7.1701665,108.3296983,Sukaraharja,100238
239,-21.9111483,-56.4719928,Bela Vista,100239
240,67.8256178,20.3351033,Kiruna,100240
241,-7.9794517,112.0416754,Ringinrejo,100241
242,45.7417486,4.8867899,Lyon,100242
243,39.4928944,-8.8783525,Feteira Pequena,100243
244,50.3290055,30.4617625,Khotiv,100244
245,-7.3743397,110.2648159,Krajan Satu,100245
246,3.856457,-68.2385339,Inírida,100246
247,29.591108,114.300474,Quankou,100247
248,19.0511285,105.4536718,Yên Thành,100248
249,51.0853063,25.0109305,Hołoby,100249
250,59.9050895,10.7673005,Oslo,100250
251,45.529774,131.846635,Mishan,100251
252,-6.7654544,108.1682147,Jatiwangi,100252
253,41.8157545,-8.3644939,Portela,100253
254,45.6851883,19.0839618,Prigrevica,100254
255,42.9038743,-78.9344814,Fort Erie,100255
256,16.167313,99.950724,Bueng Samakkhi,100256
257,41.7870665,-7.9442479,Outeiro,100257
258,50.282951,18.2785364,Bierawa,100258
259,19.1945799,101.483498,Sainyabuli,100259
260,44.7695326,19.6480341,Majur,100260
261,-7.7812913,110.5066489,Sambirejo,100261
262,-7.5831538,108.6353764,Ciparakan,100262
263,33.347316,120.16366,Piancheng,100263
264,-34.5434158,-58.5867617,Fernández,100264
265,53.7548612,20.4536838,Kortowo,100265
266,18.1096868,-95.8803869,Loma Bonita,100266
267,16.8211238,100.2658516,Phitsanulok,100267
268,18.2291677,-78.1393397,Savanna-la-Mar,100268
269,6.0067464,80.2531784,Unawatuna,100269
270,-8.602068,116.195655,Batukuta,100270
271,38.6913664,139.7516875,Tagawa,100271
272,-6.4698758,107.4780383,Cibungur,100272
273,40.7084699,72.8781322,Kara Suu,100273
274,53.4249712,58.9688869,Tuymazy,100274
275,40.7773081,-74.0186386,Xinlin,100275
276,28.003,86.303,Zuobude,100276
277,37.970285,-1.1424989,Murcia,100277
278,9.9399061,-65.1610557,Clarines,100278
279,17.4561766,50.580869,Rumāh,100279
280,23.142017,113.242025,Xicun,100280
281,14.2445365,-16.2728091,Gandiaye,100281
282,15.482604,-90.308511,San Pedro Carchá,100282
283,37.2944409,62.3682506,Yolöten,100283
284,42.1088311,21.553379,Матејче,100284
285,16.7124054,98.5746649,Mae Sot,100285
286,43.61812,118.05545,Linxi,100286
287,23.327001,112.734103,Shihui,100287
288,24.466675,112.626495,Yangsha,100288
289,49.989968,22.3314395,Sietesz,100289
290,44.351935,-87.8445954,København,100290
291,45.3913779,40.1763516,Tbilisskaya,100291
292,-7.8477615,111.5021144,Setono,100292
293,37.6254329,69.636351,Chubek,100293
294,49.6877737,37.1778581,Shevchenkove,100294
295,30.335237,112.239631,Jingzhou,100295
296,-13.7145854,26.2304616,Kasempa,100296
297,13.5616918,-15.8304975,No Kunda,100297
298,-7.4250762,108.2822389,Cinunjang,100298
299,39.7573054,67.2728697,Bulung’ur,100299
300,-17.4956441,-149.8728273,Papetoai,100300
301,-34.5903044,-58.4985279,Famaillá,100301
302,33.7311229,130.5200852,Komono,100302
303,-7.7701645,110.6511592,Kebon Tengah,100303
304,31.7338222,118.8719394,Lukou,100304
305,51.449197,7.1957779,Bochum,100305
306,26.3448341,127.833984,Okinawa,100306
307,43.4945737,5.8978018,Paris 02,100307
308,59.3763019,17.9325356,Sundbyberg,100308
309,52.5666667,78.9472223,Kulunda,100309
310,39.6222264,20.8874294,Katsikás,100310
311,30.5211502,112.8915932,Changjiang,100311
312,38.6968603,-8.7359804,Santo Isidro,100312
313,27.706424,115.467884,Shenzhengqiao,100313
314,-7.221562,111.759598,Tengger,100314
315,-6.8107874,39.2596277,Magomeni,100315
316,14.6760848,120.9873093,Little Baguio,100316
317,-6.7726186,110.8791343,Kudus,100317
318,50.5213838,2.6404239,Béthune,100318
319,28.435584,116.483259,Zhongling,100319
320,10.4853153,5.1458131,Ibeto,100320
321,19.3579802,-99.0806088,San Miguel,100321
322,41.833253,20.974874,Чегране,100322
323,-8.9877356,-78.6141851,Santa,100323
324,49.5609979,5.8741913,Pétange,100324
325,47.2115555,3.8260916,Vannes,100325
326,37.261564,111.769893,Fenyan,100326
327,-7.2801,108.1944,Parakanhonje Wetan,100327
328,-7.4703872,110.9387418,Masaran,100328
329,8.4715413,124.6404944,Kagay,100329
330,25.296878,60.6459285,Chābahār,100330
331,22.543096,114.057865,Shangzhang,100331
332,-8.1553145,111.8270486,Pakel,100332
333,45.843424,127.75061,Bin’an,100333
334,21.7960343,-79.9808143,Trinidad,100334
335,13.5775886,44.0177989,Ta‘izz,100335
336,8.955271,126.009711,San Miguel,100336
337,-42.7608818,-65.0587962,Leleque,100337
338,14.335889,-89.713497,Asunción Mita,100338
339,-6.9258108,107.6222719,Malabar,100339
340,12.5049537,107.6925674,Đắk Mil,100340
341,31.654375,120.752481,Hongsihu,100341
342,-19.4959312,-41.0713439,Aimorés,100342
343,23.696329,117.433977,Xibu,100343
344,10.7160345,124.011269,Naghalin,100344
345,-4.5329418,105.2077798,Menggala,100345
346,-22.1147688,-45.0584384,São Lourenço,100346
347,50.4810642,34.9654363,Trostyanets’,100347
348,51.9034509,16.955476,Gostyń,100348
349,38.9,-77.04,Washington,100349
350,12.3576715,29.2378899,Abū Zabad,100350
351,16.99885,121.96434,Maluno Sur,100351
352,44.977078,127.973162,Laojieji,100352
353,40.5851643,46.8429953,Qızılhacılı,100353
354,50.8137495,-119.6934422,Chase,100354
355,-13.3261109,-74.9975,Pilpichaca,100355
356,44.028793,43.1146215,Goryachevodskiy,100356
357,8.2511483,124.8514628,Kalugmanan,100357
358,-7.348395,112.7494759,Wedoro,100358
359,8.12722,122.845,Caracal,100359
360,50.1987725,39.5632497,Rossosh’,100360
361,18.6205659,-68.6978423,Salvaleón de Higüey,100361
362,39.5955323,-7.5303251,Montalvão,100362
363,47.31878,130.274684,Gongnong,100363
364,23.028301,115.84573,Beiyang,100364
365,30.9882241,121.1241334,Jixiang,100365
366,-12.8528438,-38.3271112,Lauro de Freitas,100366
367,32.7087439,-97.3617845,Fort Worth,100367
368,60.1996809,24.8958285,Taavetti,100368
369,14.739952,121.0267879,Usab,100369
370,52.05206,85.08765,Starobelokurikha,100370
371,-34.5332237,-58.5074331,Libertad,100371
372,15.3376191,-91.0268638,Cunén,100372
373,49.6542555,16.5117461,Březová nad Svitavou,100373
374,21.1231158,-101.6968667,Bellavista,100374
375,-6.6591023,106.2931013,Cilebang Satu,100375
376,10.151,122.9978,Cansolungon,100376
377,32.762022,111.709662,Xianghua,100377
378,-6.7387737,106.8768415,Caringin,100378
379,15.979273,120.8157261,Calomboyan,100379
380,-7.1504031,-34.9625932,Juàzeirinho,100380
381,47.5745404,-2.3578005,Clamart,100381
382,60.3428116,30.4896784,Garbolovo,100382
383,38.2892237,23.8248958,Markópoulo Oropoú,100383
384,36.929749,98.480195,Wulan,100384
385,50.4614333,19.0428325,Ożarowice,100385
386,49.1919498,-123.9681079,Nanmo,100386
387,-7.3825,108.16,Babakankalong,100387
388,25.234479,110.179953,Guilin,100388
389,-25.4648258,-57.0421483,Piribebuy,100389
390,22.948016,113.366904,Shiqiao,100390
391,43.4945737,5.8978018,Paris 18,100391
392,31.363043,72.98757,Sann,100392
393,-21.1661005,27.5143603,Francistown,100393
394,39.793846,116.7156302,Fatou,100394
395,49.5670697,6.1544928,Fentange,100395
396,41.88,-87.62,Chicago,100396
397,45.632343,5.112589,Saint-Quentin-Fallavier,100397
398,13.0730815,123.5982956,Jovellar,100398
399,29.756501,121.507191,Henghe,100399
400,31.364902,108.249509,Aoqiao,100400
401,41.4112348,-7.9526065,Mondim de Basto,100401
402,9.08556,125.57278,Sanghan,100402
403,34.238555,117.196805,Kuishan,100403
404,39.0527074,116.9237911,Zengguang,100404
405,52.0969643,22.0951156,Skórzec,100405
406,36.599744,101.803717,Chengdong,100406
407,30.747842,120.783024,Nanhu,100407
408,8.955271,126.009711,San Miguel,100408
409,41.5608072,-8.5863716,Souto,100409
410,25.4390388,30.5586043,Al Khārijah,100410
411,36.759507,110.632006,Yongheshi,100411
412,30.823526,91.622728,Golug,100412
413,27.948308,109.599191,Fengjiang,100413
414,-7.2578125,108.1966055,Bunirasa,100414
415,-6.7587465,111.6809778,Temperak,100415
416,44.164709,38.9989611,Nebug,100416
417,41.0909864,-8.4901287,Foz Sousa,100417
418,19.3004022,-98.9341937,Independencia,100418
419,13.0748879,120.7213113,Santa Cruz,100419
420,39.6454395,-8.8259105,Quinta do Sobrado,100420
421,-31.646394,-63.760259,Costa Sacate,100421
422,27.91072,104.540674,Haoba,100422
423,35.218292,106.653158,Huating,100423
424,49.666675,19.2774975,Świnna,100424
425,-0.45964,100.590599,Batusangkar,100425
426,-32.075,115.779362,Honglin,100426
427,23.7318903,-99.1502962,Miguel Hidalgo,100427
428,30.183806,120.264253,Xushan,100428
429,-7.55,111.283333,Dadapan,100429
430,55.4872242,37.3046546,Troitsk,100430
431,18.144657,-94.4189829,Leyuan,100431
432,53.2058,34.6649001,Belyye Berega,100432
433,42.009313,20.9713986,Tetovo,100433
434,22.579117,113.081508,Jiangcun,100434
435,53.1387595,-7.0625888,Monasterevin,100435
436,33.2437603,131.6853045,Tsurusaki,100436
437,49.863612,-119.5644584,West Kelowna,100437
438,50.2294568,16.2923097,Skuhrov nad Bělou,100438
439,59.3673245,17.8425299,Hässelby,100439
440,13.4677672,144.7453228,Agana Heights Village,100440
441,-8.577582,115.136457,Banjar Laing,100441
442,16.004175,120.7806412,San Quintin,100442
443,58.6429512,13.6587955,Mariestad,100443
444,41.0174461,-7.7750036,Tarouca,100444
445,23.020673,113.751799,Donggu,100445
446,48.418023,23.7371118,Kolochava,100446
447,13.9740494,-86.5425921,Araulí,100447
448,-6.8806715,108.5017948,Panawuan,100448
449,41.1024492,-81.4992884,Akron,100449
450,48.7911354,26.6912362,Makiv,100450
451,23.0706415,112.4852219,Yanqian,100451
452,-6.7612368,111.6273187,Nglojo,100452
453,-9.9165208,-70.1455805,Manoel Urbano,100453
454,9.4312231,-69.9520561,Paraíso de Chabasquén,100454
455,60.2285503,23.1228098,Perniö,100455
456,-21.7853787,-46.5619303,Poços de Caldas,100456
457,39.819732,-8.8093934,Monte Agudo,100457
458,16.3138561,102.6905326,Phra Yuen,100458
459,44.4309874,34.0789969,Koreiz,100459
460,-43.417615,172.6519706,Kaiapoi,100460
461,-31.4505323,-64.1847851,Villa Nueva,100461
462,9.1374129,125.5593311,Comagascas,100462
463,45.4002994,29.5961736,Vylkove,100463
464,42.14389,21.58778,Otlja,100464
465,19.6402143,-99.0654022,La Laguna,100465
466,46.342574,86.242359,Xazgat,100466
467,-10.7072554,22.22946,Luau,100467
468,-6.160726,106.915202,Kajanan,100468
469,51.42582,17.93378,Ostrzeszów,100469
470,59.3779388,10.7605604,Moss,100470
471,43.516667,109.116667,Naran Bulag,100471
472,46.0771644,32.5299379,Lazurne,100472
473,19.0077085,-69.7320914,Gonzalo,100473
474,-7.690753,109.2861268,Sidaurip,100474
475,45.3044566,-73.8746233,Beauharnois,100475
476,7.420267,122.8417436,Sagasa,100476
477,41.1279946,-7.9859629,Castelo,100477
478,-42.7602412,-65.0604467,Tecka,100478
479,-0.2467982,109.6163185,Sungai Raya,100479
480,26.312444,99.850365,Shaxi,100480
481,32.748741,103.82319,Huanglong,100481
482,32.6546275,51.6679826,Isfahan,100482
483,-7.698725,113.8465758,Pasirputih,100483
484,58.5023638,13.1702373,Lidköping,100484
485,48.4493055,22.7117106,Mukacheve,100485
486,-6.1382732,-77.0967357,Soritor,100486
487,59.2416497,14.4338249,Karlskoga,100487
488,42.9107754,21.1956273,Podujeva,100488
489,31.739255,130.670516,Kajiki,100489
490,42.1144473,-72.4909026,Springfield,100490
491,17.263531,121.834345,Tumauini,100491
492,31.9633663,49.2892129,Masjed Soleymān,100492
493,47.4376347,-70.5082419,Baie-Saint-Paul,100493
494,-8.0941273,112.274168,Talun,100494
495,14.262652,121.498915,Cavinti,100495
496,38.521085,102.194089,Jinchuan,100496
497,42.3604802,-71.0590624,Boston,100497
498,11.3460734,9.6591939,Samamiya,100498
499,40.4696026,-80.0388543,Pittsburgh,100499
500,12.07539,109.140438,Cam Lâm,100500
501,49.0054448,16.598735,Žabčice,100501
502,16.0432035,119.9370328,Pung-Pang,100502
503,49.5178845,6.190803,Frisange,100503
504,23.17277,114.289528,Boluo,100504
505,43.0015252,41.0234153,Sokhumi,100505
506,14.6066438,104.705431,Kantharalak,100506
507,36.7821,117.032171,Daqiao,100507
508,-34.6698749,-58.5616502,Florencio Varela,100508
509,23.030446,113.734466,Qianpai,100509
510,34.931466,109.449831,Xingzhen,100510
511,7.8193502,-72.2238815,Táriba,100511
512,53.0222045,-112.8285983,Camrose,100512
513,53.3126826,22.9196898,Knyszyn,100513
514,66.4924399,25.755466,Ranua,100514
515,-40.4824138,175.3010644,Foxton,100515
516,16.1535575,-13.5032081,Kaédi,100516
517,33.011529,114.022298,Chuanbu,100517
518,51.766482,55.36468,Nezhinka,100518
519,60.502878,43.5649824,Tarnogskiy Gorodok,100519
520,47.4047584,29.1057554,Tsybulevka,100520
521,33.570769,117.015187,Duanjia,100521
522,-33.326671,-60.2336692,Viale,100522
523,35.0880511,-106.6873356,La Esperanza,100523
524,41.8033445,-7.5528376,Santa Cruz,100524
525,35.3890138,139.5007628,Fukayachō,100525
526,23.1833095,113.358579,Xomong,100526
527,39.871981,116.686439,Tuqiao,100527
528,36.1638542,139.0842383,Inazawa,100528
529,-15.25055,-71.0927279,Condoroma,100529
530,-21.9953615,-42.9146039,Sapucaia,100530
531,-7.02476,107.08093,Gunungjulang,100531
532,45.469429,12.2400678,Mestre,100532
533,57.5275396,12.0592344,Kungsbacka,100533
534,-6.13333,39.28333,Koani Ndogo,100534
535,52.1327312,18.2293232,Stare Miasto,100535
536,38.9374808,-77.0852258,Washington,100536
537,54.5940619,-5.9308088,Belfast,100537
538,45.116904,42.503334,Spitsevka,100538
539,42.735656,121.8107,Kulun,100539
540,32.187849,119.425836,Zhenjiang,100540
541,55.59754,38.47134,Rechitsy,100541
542,53.3934077,17.6633805,Sośno,100542
543,-21.1330059,-41.7407394,Bom Jesus do Itabapoana,100543
544,40.6816244,-8.6291241,Cabeço,100544
545,36.883077,22.5489792,Krokeaí,100545
546,35.099528,117.461517,Shanting,100546
547,22.3908295,113.9725126,Tuen Mun,100547
548,54.9086072,82.9751504,Sovetskoye,100548
549,31.617202,104.46797,Beichan,100549
550,49.4150717,18.109785,Valašská Bystřice,100550
551,-16.521513,-50.3730843,São Luís de Montes Belos,100551
552,20.5800358,-75.2435307,Sagua de Tánamo,100552
553,8.9679001,-71.2740573,Tucaní,100553
554,2.3390467,42.2880059,Baardheere,100554
555,40.590023,19.6440066,Cakran,100555
556,20.1400094,-75.2128996,Guantánamo,100556
557,53.1106929,20.3964722,Żabieniec,100557
558,9.329496,125.554433,Jabonga,100558
559,-6.1869527,106.1698563,Curug,100559
560,-7.6492089,111.4395128,Bendo,100560
561,16.7095,33.3565,El Matama,100561
562,31.035395,112.199427,Jingmen,100562
563,40.5544993,-7.9843201,Silvares,100563
564,55.662882,37.5826719,Zyuzino,100564
565,40.152053,-8.3479579,Senhor da Serra,100565
566,50.7054502,15.3203304,Plavy,100566
567,19.2874648,-99.6494479,5 de Mayo,100567
568,22.843818,114.164223,Qinxi,100568
569,-15.158624,-48.2802925,Padre Bernardo,100569
570,16.228139,120.4936309,Subusub,100570
571,50.6398985,15.8196702,Svoboda nad Úpou,100571
572,56.0956089,27.532459,Dagda,100572
573,43.8832308,141.7351885,Rumoi,100573
574,34.319658,104.562412,Lujing Zhen,100574
575,50.0287787,21.7557084,Iwierzyce,100575
576,32.082978,35.364579,Majdal Banī Fāḑil,100576
577,-20.692675,164.991636,Hienghène,100577
578,35.1148773,33.1435877,Meniko,100578
579,29.0755457,-110.9610195,Fovissste,100579
580,14.105202,-15.5415755,Kaffrine,100580
581,14.3839328,121.050126,Santo Niño,100581
582,33.25,69.216667,Nīkêh,100582
583,52.20775,21.077623,Mokotów,100583
584,55.9576019,36.2249059,Sychëvo,100584
585,15.4217858,51.678158,Qishn,100585
586,8.519857,123.533832,La Libertad,100586
587,40.8103206,19.9199137,Kuçovë,100587
588,41.226934,-8.3815652,Valinhos,100588
589,39.9799992,-105.248737,Boulder,100589
590,50.5205623,116.3132019,Olovyannaya,100590
591,29.899044,121.844618,Beilun,100591
592,8.5681393,-70.3583879,El Corozo,100592
593,50.0344323,15.418462,Chvaletice,100593
594,45.991471,4.718821,Villefranche-sur-Saône,100594
595,38.853468,121.2502,Shuishiying,100595
596,40.0725348,44.3051313,Haykashen,100596
597,29.509067,110.300741,Furongqiao,100597
598,39.494488,19.8722638,Ágios Matthaíos,100598
599,9.4362547,123.1893864,Silab,100599
600,-8.8071005,116.8174054,Labuhanlalar,100600
601,42.7015624,25.8960346,Tvŭrditsa,100601
602,60.3496505,23.2799707,Muurla,100602
603,16.4267638,103.1048449,Chiang Yuen,100603
604,25.710538,116.754472,Liancheng,100604
605,7.4686205,125.7662248,Pagsabangan,100605
606,35.0820413,-106.6478031,Albuquerque,100606
607,38.0426062,23.7536323,Néa Ionía,100607
608,14.7525179,-61.1759005,Schœlcher,100608
609,49.4744879,15.8691305,Bohdalov,100609
610,24.063883,99.200253,Gantang,100610
611,47.66389,36.25633,Hulyaypole,100611
612,24.44218,114.938684,Heping,100612
613,40.3219266,-7.612767,Torre,100613
614,50.7734719,18.9680842,Blachownia,100614
615,-6.995577,112.9862557,Batambak,100615
616,40.076762,113.300129,Datong,100616
617,27.615202,113.870729,Anyuan,100617
618,-7.3708505,112.4440473,Bangeran,100618
619,30.2371203,68.5211384,Duki,100619
620,-24.6399084,-53.1426814,Iguatu,100620
621,32.06672,95.65691,Gaxung,100621
622,31.77,-106.43,El Paso,100622
623,28.6517036,117.9041296,Shiren,100623
624,35.8559647,-86.3944828,Murfreesboro,100624
625,-17.3256545,49.36706,Fenoarivo Be,100625
626,-8.2357,124.9124,Lakateng,100626
627,35.218292,106.653158,Huating,100627
628,50.6735414,21.0463888,Raków,100628
629,31.5769405,72.4156898,Lāliān,100629
630,34.675197,103.498609,Baitu,100630
631,30.8716344,104.0134362,Lianhe,100631
632,43.2270189,17.536297,Radišići,100632
633,14.3248092,120.9774982,Lalauigan,100633
634,49.5671764,17.4114814,Doloplazy,100634
635,-22.7862985,-43.3053106,Duque de Caxias,100635
636,53.0748279,132.9367253,Ekimchan,100636
637,40.64278,19.65083,Patos Fshat,100637
638,-23.8182859,-46.0851681,Bertioga,100638
639,-6.9114323,107.5771444,Andir,100639
640,-6.4698758,107.4780383,Cibungur,100640
641,-7.36795,108.21101,Babakankadu,100641
642,46.4566661,33.8723511,Askaniya Nova,100642
643,13.5260215,123.2925505,Pawili,100643
644,49.2609439,13.3834052,Klatovy,100644
645,-0.2488358,35.7323709,Molo,100645
646,-3.0423379,120.1733631,Mawa,100646
647,51.1488512,19.327898,Lgota Wielka,100647
648,42.5187534,27.4772798,Burgas,100648
649,46.34515,-72.5477,Trois-Rivières,100649
650,53.7835379,91.3543318,Chernogorsk,100650
651,-8.0896,112.2944,Gogosuket,100651
652,29.7286909,115.9990815,Taling,100652
653,-9.9478,124.5363,Haunubenak,100653
654,38.42,-82.47,Huntington,100654
655,34.55132,65.79302,Dowlatyār,100655
656,9.93689,-83.00685,Limón,100656
657,54.5997042,18.4823439,Kosakowo,100657
658,19.6632775,-99.2058279,San Isidro,100658
659,48.6463593,1.8015218,Rambouillet,100659
660,42.8414484,21.5766407,Medveđa,100660
661,38.0790354,23.5215964,Magoúla,100661
662,13.78694,45.2304,As Suwaydā,100662
663,33.9972134,72.1486548,Akora,100663
664,59.9477092,10.8219787,Oslo,100664
665,1.932389,-76.214046,Isnos,100665
666,29.7444645,105.7948814,Dazu,100666
667,46.0036703,14.5753497,Lavrica,100667
668,22.8080569,-81.1940404,Jovellanos,100668
669,34.3400547,108.946087,Zhangjiabao,100669
670,-23.572516,-46.668437,São Paulo,100670
671,14.4409724,120.9950071,Socorro,100671
672,23.020673,113.751799,Dongjian,100672
673,-8.1468836,-78.1721189,Santiago de Chuco,100673
674,13.8018124,8.98527,Zinder,100674
675,8.2596,-11.1914,Jojoima,100675
676,28.924088,93.825006,Moluo,100676
677,9.017718,-70.297951,Masparrito,100677
678,52.2248754,36.1135722,Stanovoye,100678
679,38.7760203,-9.1024092,Moscavide,100679
680,49.3788944,14.7029806,Sezimovo Ústí,100680
681,7.0727574,100.4059456,Bang Klam,100681
682,52.1316395,23.0297501,Leśna Podlaska,100682
683,24.9936281,121.3009798,Taoyuan,100683
684,56.3690033,38.5829669,Strunino,100684
685,-12.3625094,-76.2272716,Quinocay,100685
686,9.5287247,-68.6290501,Las Vegas,100686
687,-25.8664184,28.1678543,Centurion,100687
688,36.6425079,127.4954241,Su-dong,100688
689,31.919897,120.085146,Ligang,100689
690,54.0471273,19.2012887,Stare Pole,100690
691,47.854132,-0.607106,Mayenne,100691
692,-8.5135139,-35.3747515,Ribeirão,100692
693,-2.9765098,33.5140043,Malya,100693
694,49.1013182,16.7048398,Telnice,100694
695,-15.5804435,-59.3800105,Pontes e Lacerda,100695
696,22.2265173,-97.8435949,Tamaulipas,100696
697,18.7634836,-70.3352881,Juan Adrián,100697
698,37.355469,120.434071,Zhouyuan,100698
699,39.7317899,-8.9338952,Amieirinha,100699
700,49.8964958,22.2871234,Jawornik Polski,100700
701,-13.05526,-74.139107,Quinua,100701
702,41.1734791,24.2141442,Kallífytos,100702
703,29.164409,116.78956,Gaojialing,100703
704,35.9202328,39.1595698,An Nāşirah,100704
705,41.343685,-7.3436907,Sobreira,100705
706,55.615632,37.4668955,Mosrentgen,100706
707,-7.633333,108.133333,Ciawitali,100707
708,-6.86277,109.6222698,Wonokerto,100708
709,34.9731207,137.0345088,Chiryū,100709
710,31.2028365,121.4379074,Jishi,100710
711,36.2145292,28.116926,Archángelos,100711
712,25.3946143,97.3840729,Myitkyina,100712
713,41.9502131,-8.5304169,Porta,100713
714,40.9612198,129.3209986,Kilju,100714
715,-21.2001343,24.8656498,Mopipi,100715
716,11.1572834,166.887052,Rongelap,100716
717,37.0666772,57.496673,Esfarāyen,100717
718,34.2872962,133.9508311,Kashihara,100718
719,-8.8315362,115.1264522,Pecatu,100719
720,42.901533,125.136451,Longshan,100720
721,15.26006,120.559708,Bamban,100721
722,46.1554974,16.4207632,Ljubešćica,100722
723,42.884784,128.033416,Dapuchaihe,100723
724,-15.7666707,35.0167866,Blantyre,100724
725,42.4782102,78.3955986,Karakol,100725
726,46.8087637,1.6937962,Châteauroux,100726
727,-9.1522423,25.8285153,Bukama,100727
728,22.746566,114.058404,Dashahe,100728
729,50.9115477,14.6182476,Varnsdorf,100729
730,30.045109,120.249049,Linpu,100730
731,26.0488019,32.2403107,Naj‘ Ḩammādī,100731
732,-8.7872,116.4814,Jorowaru Daya,100732
733,35.732798,116.489043,Wenshang,100733
734,6.848589,101.4112049,Yaring,100734
735,48.3909721,-4.4854059,Brest,100735
736,22.948016,113.366904,Shiqiao,100736
737,29.97176,122.323867,Putou,100737
738,56.0817105,14.4878816,Bromölla,100738
739,29.623319,100.222137,Xiagong,100739
740,26.885704,120.005147,Xiapu,100740
741,14.565668,121.0317737,San Juan,100741
742,36.009929,106.27349,Huangma,100742
743,64.8155446,24.7665727,Siikajoki,100743
744,-29.9629768,-51.629387,Charqueadas,100744
745,44.7381571,17.8240149,Stanari,100745
746,58.5083791,34.5830034,Moshenskoye,100746
747,40.2365225,-8.5110798,São João do Campo,100747
748,54.1433253,-9.7359765,Oranmore,100748
749,50.8579559,32.3974889,Ichnya,100749
750,29.476705,121.869339,Xiongshan,100750
751,42.8563356,-2.7033575,Vitoria-Gasteiz,100751
752,15.4575357,-92.281427,El Porvenir,100752
753,48.732568,2.2889821,Massy,100753
754,44.1425014,22.7793914,Novo Selo,100754
755,37.9442881,23.7117556,Néa Smýrni,100755
756,-9.2759427,119.9357066,Sasar,100756
757,42.7197486,71.6080009,Pokrovka,100757
758,0.0351644,36.3642919,Nyahururu,100758
759,-15.8916202,-52.2618826,Barra do Garças,100759
760,23.2033136,116.371665,Jinli,100760
761,53.9165867,18.1905615,Kaliska,100761
762,-15.6093293,-72.0896229,Colca,100762
763,49.5769172,19.833467,Spytkowice,100763
764,14.6640154,102.7939759,Nang Rong,100764
765,-0.754923,132.311005,Salem,100765
766,35.0876436,36.216972,كاف الجاع,100766
767,13.3042145,-86.1828047,San Sebastián de Yalí,100767
768,-6.939153,112.3188749,Tebluru,100768
769,38.4576605,-9.1065809,Corredoura,100769
770,28.162833,113.643076,Liutang,100770
771,45.4235609,-73.9319061,Notre-Dame-de-l'Île-Perrot,100771
772,55.78327,-118.83607,Spirit River,100772
773,27.542493,110.702501,Huxingshan,100773
774,-31.06523,28.3345399,Maclear,100774
775,10.4937816,-66.8760887,Sabana Grande,100775
776,44.8278003,14.7318165,Lopar,100776
777,43.6445087,25.1246359,Belene,100777
778,28.579409,110.090436,Miaotang,100778
779,39.63549,112.109567,Shuangnian,100779
780,30.037192,121.154634,Yuyao,100780
781,49.1912902,15.0524346,Jarošov nad Nežárkou,100781
782,60.5708242,22.097429,Masku,100782
783,48.3909721,-4.4854059,Brest,100783
784,32.8449965,-96.9799755,Irving,100784
785,32.5539412,130.4103077,Setaka,100785
786,36.3504119,127.3845475,Daejeon,100786
787,27.3669252,118.8644179,Zhutang,100787
788,41.3532895,-8.2103678,Boucinhas,100788
789,49.57642,21.86815,Rymanów,100789
790,-6.2318126,106.8396166,Kostarea Satu,100790
791,43.8666546,77.0513838,Kapshagay,100791
792,35.4029736,136.8798013,Kakamigahara,100792
793,46.3789875,14.0683139,Zgornje Gorje,100793
794,-32.9285798,-60.6923382,Casilda,100794
795,29.866911,115.61166,Chengui,100795
796,50.8137495,-119.6934422,Chase,100796
797,22.5789673,-80.2488596,Santo Domingo,100797
798,46.0523136,17.2018057,Ferdinandovac,100798
799,8.77528,124.80222,Napalitan,100799
800,40.8288377,-73.9374517,New York City,100800
801,56.3615314,41.0836902,Novki,100801
802,-40.9026164,174.9939663,Paraparaumu,100802
803,31.070643,113.943274,Xiaogang,100803
804,39.893212,116.477516,Jiulongshan,100804
805,57.4572354,40.5773582,Nerekhta,100805
806,37.9525906,23.7464528,Ymittos,100806
807,57.762202,12.056698,Göteborg,100807
808,14.8827263,120.5201733,Prado Siongco,100808
809,41.9100239,20.9108471,Pirok,100809
810,52.4397976,61.7405126,Ordzhonikidze,100810
811,44.5765376,34.3431531,Partenit,100811
812,60.7099757,46.4179523,Velikiy Ustyug,100812
813,-14.4296108,-67.5350917,Rurrenabaque,100813
814,56.6175886,104.1948978,Zheleznogorsk-Ilimskiy,100814
815,46.8071439,33.5698471,Lyubymivka,100815
816,22.8275824,90.5247893,Mehendiganj,100816
817,24.89604,118.592147,Yuanquan,100817
818,-12.266667,-74.95,Huaribamba,100818
819,41.3309238,-8.667162,Vairão,100819
820,29.831643,120.307334,Jiangzao,100820
821,34.6495513,-3.8629852,Aknoul,100821
822,34.7836044,113.6738442,Wujiao,100822
823,50.0898667,18.7713104,Orzesze,100823
824,52.7704654,17.9583306,Dąbrowa,100824
825,39.7467369,98.5069862,Fengxizhai,100825
826,32.2342478,-111.0033984,Tucson,100826
827,9.6588232,-84.0995948,San Rafael Arriba,100827
828,14.8221783,120.2851808,Basing,100828
829,59.843765,10.7798142,Oslo,100829
830,0.10144,127.43402,Guruafin,100830
831,-7.5289363,110.7614166,Gawanan,100831
832,46.5448323,14.9660445,Ravne na Koroškem,100832
833,34.292103,107.531655,Diaowei,100833
834,38.822691,114.35056,Wanglinkou,100834
835,31.859964,120.411393,Aoyang,100835
836,-6.0777029,-35.2420083,São José de Mipibu,100836
837,41.867116,-8.1991214,Castelo,100837
838,49.8101924,19.3940342,Rzyki,100838
839,40.42,-104.7099999,Greeley,100839
840,36.86278,66.16656,Khānaqāh,100840
841,58.6247472,59.8241142,Nizhnyaya Tura,100841
842,59.8787345,10.7810283,Oslo,100842
843,15.7967076,121.4816411,Maria Aurora,100843
844,24.9936281,121.3009798,Taoyuan,100844
845,40.8148532,-8.4821897,Póvoa,100845
846,-25.3820751,-56.9633087,Eusebio Ayala,100846
847,12.146493,125.24729,Maslog,100847
848,36.7336287,137.1426455,Kuragaki-kosugi,100848
849,33.4316535,131.3529666,Kamiichi,100849
850,48.64989,-53.11474,Bonavista,100850
851,54.0282094,48.329762,Krasnyy Gulyay,100851
852,9.000538,126.159227,Gamut,100852
853,50.5439471,30.1488137,Vorzel’,100853
854,53.0917381,-8.2215941,Portumna,100854
855,56.6342788,36.885813,Kabakovo,100855
856,15.77511,108.1665855,Duy Xuyên,100856
857,53.4835228,17.2120661,Lipka,100857
858,48.6939078,2.3491182,Longjumeau,100858
859,11.7907511,102.8773712,Khlong Yai,100859
860,7.9187344,125.3297787,San Fernando,100860
861,53.9559626,38.2899306,Novomoskovsk,100861
862,13.8092603,-10.8345647,Bafoulabé,100862
863,53.2198089,63.6354232,Kostanay,100863
864,37.2635727,127.0286009,Suwon-si,100864
865,-6.9424923,111.5200007,Bogorejo,100865
866,13.5027167,144.8016402,Tamuning-Tumon-Harmon Village,100866
867,-27.6140791,-48.6370861,São José,100867
868,-3.1941468,114.5361435,Anjirmuara,100868
869,9.8996343,124.2844697,Dagohoy,100869
870,10.6365464,124.9386692,Mahaplag,100870
871,-7.2903571,109.0185719,Taraban Timur,100871
872,51.9769348,116.5697117,Nerchinsk,100872
873,14.5042512,101.948349,Chaloem Phra Kiat,100873
874,-14.72796,-70.52285,Orurillo,100874
875,9.442426,123.236968,Tandayag,100875
876,9.7666664,124.4833298,Lombog,100876
877,52.1660441,16.4612356,Kamieniec,100877
878,44.7733293,19.734522,Klenak,100878
879,60.3584066,28.6307178,Primorsk,100879
880,55.4055305,38.2447393,Bronnitsy,100880
881,23.913205,116.464983,Liuhuang,100881
882,-8.2716375,111.7227125,Prigi,100882
883,49.2484813,17.7516417,Hvozdná,100883
884,8.5653801,0.9772874,Sotouboua,100884
885,43.701416,7.310776,Villefranche-sur-Mer,100885
886,-20.1215224,-40.3077898,Serra,100886
887,12.6030181,37.4521319,Gondar,100887
888,52.3444367,4.9091171,Amsterdam Oud Zuid en Rivierenbuurt,100888
889,37.9381943,126.5877948,Kaesŏng,100889
890,30.9457638,121.4371451,Mingzhong,100890
891,39.8551211,44.6942731,Ararat,100891
892,35.2019368,24.996407,Káto Asítai,100892
893,-6.1410265,12.3521148,Soio,100893
894,51.3842543,58.9999439,Solnechnyy,100894
895,30.131784,120.056029,Baozi,100895
896,26.789958,114.908872,Taihe,100896
897,-7.5846909,-37.5381606,Tabira,100897
898,14.631218,121.0628238,Pajo,100898
899,19.4458447,-99.1497664,Buenavista,100899
900,49.97976,21.29492,Pilzno,100900
901,38.5,101.21667,Huazhaizi,100901
902,28.491356,112.615076,Oujiangcha,100902
903,34.014215,105.298756,Xihe,100903
904,25.1858677,44.6019551,Sājir,100904
905,43.3708997,131.9898172,Vol’no-Nadezhdinskoye,100905
906,50.429849,19.0520962,Sączów,100906
907,40.9141247,20.7427213,Ohrid,100907
908,-7.6963118,-37.0614998,Prata,100908
909,-8.1658601,111.7763713,Mergayu,100909
910,25.6765837,-100.2602364,Guadalupe,100910
911,53.7283566,-7.8004329,Longford,100911
912,43.7441795,2.511999,Marseille,100912
913,57.9901314,56.2090194,Belyayevka,100913
914,43.8666546,77.0513838,Kapshagay,100914
915,11.1138152,125.3867985,Balangiga,100915
916,-32.0355634,-52.0918239,Rio Grande,100916
917,-20.4967315,57.468383,Chemin Grenier,100917
918,9.9825621,-84.1685232,La Asunción,100918
919,31.95069,35.46756,Al ‘Awjā,100919
920,6.6833334,124.1500015,Barurao,100920
921,46.4027492,-63.7716391,Summerside,100921
922,34.058401,107.319116,Taibai,100922
923,-3.4763823,-80.2225448,Huaquillas,100923
924,48.821908,2.2615744,Issy-les-Moulineaux,100924
925,26.444341,115.699778,Gulonggang,100925
926,39.75,-75.55,Wilmington,100926
927,43.1598675,-0.8926089,Saint-Étienne,100927
928,-10.4152155,-76.2356005,Pallanchacra,100928
929,47.479469,19.0544773,Budapest,100929
930,-34.7611766,-56.3628409,Delta del Tigre,100930
931,43.1283145,5.9294606,Toulon,100931
932,-8.1661664,111.7480514,Bantengan,100932
933,61.3066824,17.0542559,Söderhamn,100933
934,37.07,-76.5,Newport News,100934
935,49.9378835,40.5529044,Boguchar,100935
936,9.4292297,-64.4674203,Anaco,100936
937,50.9427305,39.4789854,Liski,100937
938,40.0912332,44.4037713,Nizami,100938
939,63.4400274,10.4024274,Trondheim,100939
940,46.3194856,-0.4546217,Niort,100940
941,23.1271241,-82.3261977,Regla,100941
942,46.711547,38.2755861,Yeysk,100942
943,-15.0144051,-39.299866,Buerarema,100943
944,31.874138,103.573122,Baixi,100944
945,22.654032,110.18122,Yulin,100945
946,43.4997666,43.5537167,Kenzhe,100946
947,31.207378,121.4174914,Hongguang,100947
948,-6.4933318,106.8809319,Citeureup,100948
949,-8.3027766,113.5222556,Balung Barat,100949
950,3.6426789,10.7830826,Eséka,100950
951,28.007425,104.009031,Huangjingba,100951
952,58.3505986,11.9490108,Uddevalla,100952
953,57.7724113,14.1585251,Jönköping,100953
954,49.7708764,22.0252771,Golcowa,100954
955,41.6570939,-8.573081,Cachadinha,100955
956,38.6640687,-8.9161487,Jardia,100956
957,45.23223,108.28245,Böhöt,100957
958,-9.4542,119.2271,Redakodi,100958
959,7.4804449,125.7515646,Tagum,100959
960,-7.76929,114.2241895,Awar-awar,100960
961,10.04208,11.21814,Kumo,100961
962,37.2512312,21.6694441,Kyparissía,100962
963,53.4174421,18.2282315,Bukowiec,100963
964,30.0510093,119.9499657,Tufang,100964
965,2.9329721,101.6259842,Putrajaya,100965
966,35.0018174,33.8913539,Liopétri,100966
967,41.4204087,-8.3676461,Gondar,100967
968,40.7701712,22.934224,Melissochóri,100968
969,41.4419957,-8.5180793,Mouquim,100969
970,56.37975,37.62774,Budenovetc,100970
971,1.4415901,124.8431006,Winangun,100971
972,38.7188171,-9.4194921,Abuxarda,100972
973,7.99917,7.58361,Bugana,100973
974,2.523477,-75.3156939,Algeciras,100974
975,32.561794,119.671018,Dinggou,100975
976,29.763892,121.513271,Sanxing,100976
977,-21.9718816,16.9063491,Okahandja,100977
978,49.0915297,1.4784611,Vernon,100978
979,20.8449115,106.6880841,Haiphong,100979
980,5.4653142,95.2579968,Lhoknga,100980
981,-43.2744697,-65.3109259,El Carmen,100981
982,57.6864243,11.9202689,Göteborg,100982
983,-8.2105982,112.4708685,Kalipare,100983
984,9.2209606,-74.4028287,Mompós,100984
985,28.663694,118.534841,Hecun,100985
986,18.412445,109.971328,Xincun,100986
987,23.6837432,57.9048938,Barkā’,100987
988,48.9309635,17.3505089,Vnorovy,100988
989,-6.6487025,111.001332,Lahar,100989
990,40.767544,114.886335,Zhangjiawo,100990
991,14.6213127,-90.5500942,El Quetzal,100991
992,50.3539812,13.8033551,Louny,100992
993,58.5704706,16.2518896,Norrköping,100993
994,22.513701,113.398577,Dongqu,100994
995,39.193073,112.865891,Yanmenguan,100995
996,44.7739151,34.5968895,Rybache,100996
997,8.5703071,150.4189148,Pisaras,100997
998,28.8876615,112.5841075,Dongting,100998
999,60.3588201,22.2240066,Turku,100999
1000,54.659677,51.5020158,Cheremshan,101000
